satNo,name,line1,line2,inclination,apogee,raan,argument_of_perigee,eccentricity,mean_motion,hdbscan_labels
63670,STARLINK-11599,1 63670U 25085G   26026.81188286  .00285856  00000-0  21568-2 0  9998,2 63670  42.9988 171.0125 0002738 243.3617 116.6970 15.70824567 43650,42.9988,365.52012666802574,171.0125,243.3617,0.0002738,15.70824567,752
63671,STARLINK-11603,1 63671U 25085H   26026.67941100  .00167771  00000-0  12774-2 0  9999,2 63671  42.9981 171.7349 0002270 249.4755 110.5869 15.70976327 43630,42.9981,364.7711147006275,171.7349,249.4755,0.000227,15.70976327,751
63672,STARLINK-11644,1 63672U 25085J   26026.29260041  .00263905  00000-0  19846-2 0  9999,2 63672  42.9990 173.9920 0003202 299.8709  60.1840 15.70969769 43578,42.999,365.4174934428353,173.992,299.8709,0.0003202,15.70969769,-1
63673,STARLINK-11634,1 63673U 25085K   26026.79595269  .00253780  00000-0  19143-2 0  9998,2 63673  42.9996 170.8836 0003396 275.4733  84.5748 15.70926752 43659,42.9996,365.6711163744144,170.8836,275.4733,0.0003396,15.70926752,752
63674,STARLINK-11656,1 63674U 25085L   26026.72707015  .00286530  00000-0  21389-2 0  9990,2 63674  42.9986 171.2222 0000822 298.1664  61.9121 15.71077557 43643,42.9986,363.5066957099987,171.2222,298.1664,8.22e-05,15.71077557,751
63675,STARLINK-11655,1 63675U 25085M   26026.78534103  .00290325  00000-0  21826-2 0  9996,2 63675  42.9986 170.7963 0001378 257.5483 102.5231 15.70897839 43652,42.9986,364.3947614725251,170.7963,257.5483,0.0001378,15.70897839,752
63676,STARLINK-11661,1 63676U 25085N   26026.78002463  .00132758  00000-0  10198-2 0  9991,2 63676  42.9978 170.7531 0002349 245.3056 114.7567 15.70882778 44301,42.9978,365.0917331644408,170.7531,245.3056,0.0002349,15.70882778,752
63677,STARLINK-33816,1 63677U 25085P   26027.00850556  .00034076  00000-0  12413-2 0  9998,2 63677  42.9996 266.4589 0002046 259.6651 100.3970 15.27602069 42594,42.9996,491.5237994648665,266.4589,259.6651,0.0002046,15.27602069,1084
63678,STARLINK-33861,1 63678U 25085Q   26027.01364811  .00028897  00000-0  10554-2 0  9992,2 63678  43.0010 266.4960 0001397 282.7624  77.3072 15.27584950 42484,43.001,491.1297796259001,266.496,282.7624,0.0001397,15.2758495,1084
63679,STARLINK-33850,1 63679U 25085R   26026.99437114  .00033635  00000-0  12257-2 0  9994,2 63679  43.0041 266.3550 0001958 272.9384  87.1244 15.27592574 42481,43.0041,491.4918580840146,266.355,272.9384,0.0001958,15.27592574,1085
63680,STARLINK-33887,1 63680U 25085S   26027.02891677  .00035835  00000-0  13049-2 0  9993,2 63680  43.0000 265.7436 0001824 271.2197  88.8446 15.27593348 42561,43.0,491.3976006704457,265.7436,271.2197,0.0001824,15.27593348,-1
63681,STARLINK-33886,1 63681U 25085T   26026.69813171  .00042688  00000-0  15506-2 0  9993,2 63681  43.0002 267.5583 0003631 290.8115  69.2347 15.27602424 42459,43.0002,492.6102236292595,267.5583,290.8115,0.0003631,15.27602424,879
63682,STARLINK-33840,1 63682U 25085U   26026.68286180  .00032771  00000-0  11944-2 0  9991,2 63682  42.9946 268.3101 0000214  16.1802 343.9056 15.27600828 42440,42.9946,490.2705582712563,268.3101,16.1802,2.14e-05,15.27600828,878
63683,STARLINK-33851,1 63683U 25085V   26026.71483768  .00044399  00000-0  16122-2 0  9999,2 63683  43.0018 267.6868 0000716 260.9783  99.0988 15.27602571 42450,43.0018,490.609767263351,267.6868,260.9783,7.16e-05,15.27602571,879
63684,STARLINK-33853,1 63684U 25085W   26026.71098055  .00046760  00000-0  16966-2 0  9991,2 63684  43.0018 267.6566 0001184 257.0898 102.9822 15.27607376 42459,43.0018,490.91647839962786,267.6566,257.0898,0.0001184,15.27607376,879
63685,STARLINK-33847,1 63685U 25085X   26026.99951495  .00040154  00000-0  14603-2 0  9995,2 63685  42.9984 266.3857 0001459 270.5196  89.5488 15.27590643 42495,42.9984,491.1552696556384,266.3857,270.5196,0.0001459,15.27590643,1085
63686,STARLINK-33880,1 63686U 25085Y   26027.01235797  .00031589  00000-0  11516-2 0  9992,2 63686  43.0013 266.4818 0001946 277.7110  82.3521 15.27605151 42608,43.0013,491.44595808985923,266.4818,277.711,0.0001946,15.27605151,1084
63697,STARLINK-33894,1 63697U 25087A   26027.28791059  .00052368  00000-0  17664-2 0  9991,2 63697  53.1599  51.6673 0001292  98.8738 261.2409 15.30225651 42864,53.1599,483.1609244190017,51.6673,98.8738,0.0001292,15.30225651,1182
63698,STARLINK-33922,1 63698U 25087B   26027.28369027  .00047894  00000-0  16177-2 0  9994,2 63698  53.1597  51.6398 0001323  90.1213 269.9940 15.30222234 42853,53.1597,483.1923732027831,51.6398,90.1213,0.0001323,15.30222234,-1
63699,STARLINK-33919,1 63699U 25087C   26027.27430476  .00046401  00000-0  15673-2 0  9994,2 63699  53.1598  52.2895 0001172  87.3308 272.7827 15.30234618 42854,53.1598,483.0519090084955,52.2895,87.3308,0.0001172,15.30234618,1047
63700,STARLINK-33908,1 63700U 25087D   26027.30057447  .00040588  00000-0  13745-2 0  9992,2 63700  53.1596  51.7431 0000798 104.9788 255.1301 15.30212401 42865,53.1596,482.86193705907,51.7431,104.9788,7.98e-05,15.30212401,1122
63701,STARLINK-33950,1 63701U 25087E   26027.31957163  .00039864  00000-0  13502-2 0  9994,2 63701  53.1614  51.8604 0001548  92.3631 267.7547 15.30215042 42866,53.1614,483.36804903448655,51.8604,92.3631,0.0001548,15.30215042,1120
63702,STARLINK-33939,1 63702U 25087F   26027.31640362  .00044246  00000-0  14963-2 0  9997,2 63702  53.1616  51.8406 0001579  94.1700 265.9482 15.30216832 42866,53.1616,483.3839489181945,51.8406,94.17,0.0001579,15.30216832,1120
63703,STARLINK-33868,1 63703U 25087G   26027.30479308  .00041655  00000-0  14103-2 0  9994,2 63703  53.1603  51.7663 0001039  83.8308 276.2811 15.30208912 42868,53.1603,483.03752043815234,51.7663,83.8308,0.0001039,15.30208912,1121
63704,STARLINK-33937,1 63704U 25087H   26027.28054581  .00047248  00000-0  15974-2 0  9995,2 63704  53.1598  51.6164 0001349  84.5033 275.6122 15.30196994 42868,53.1598,483.285563213123,51.6164,84.5033,0.0001349,15.30196994,-1
63705,STARLINK-33848,1 63705U 25087J   26027.29213139  .00041928  00000-0  14188-2 0  9998,2 63705  53.1598  51.6901 0001493 110.7658 249.3503 15.30221609 42855,53.1598,483.31074543079643,51.6901,110.7658,0.0001493,15.30221609,1157
63706,STARLINK-33995,1 63706U 25087K   26027.33434374  .00042160  00000-0  14260-2 0  9990,2 63706  53.1608  51.9488 0001675  90.2966 269.8226 15.30233369 42863,53.1608,483.4003571939478,51.9488,90.2966,0.0001675,15.30233369,1049
63707,STARLINK-33982,1 63707U 25087L   26027.29846412  .00049828  00000-0  16822-2 0  9990,2 63707  53.1597  51.7256 0001255  99.0035 261.1107 15.30219599 42862,53.1597,483.1536393033024,51.7256,99.0035,0.0001255,15.30219599,1157
63708,STARLINK-33915,1 63708U 25087M   26027.31007079  .00054028  00000-0  18226-2 0  9990,2 63708  53.1607  51.8011 0001747 127.5852 232.5308 15.30207341 42862,53.1607,483.52742738148476,51.8011,127.5852,0.0001747,15.30207341,1121
63709,STARLINK-33862,1 63709U 25087N   26026.38933175  .00030083  00000-0  10227-2 0  9990,2 63709  53.1602  56.0130 0002724 162.2932 197.8165 15.30230700 42722,53.1602,484.1272344202148,56.013,162.2932,0.0002724,15.302307,-1
63710,STARLINK-33920,1 63710U 25087P   26027.32695776  .00027848  00000-0  94824-3 0  9990,2 63710  53.1607  51.9044 0001636  90.8623 269.2565 15.30220002 42868,53.1607,483.413546331333,51.9044,90.8623,0.0001636,15.30220002,1119
63711,STARLINK-33580,1 63711U 25087Q   26027.27114096  .00037416  00000-0  12681-2 0  9998,2 63711  53.1607  52.2668 0001572  77.7875 282.3301 15.30223987 42855,53.1607,483.3577851832462,52.2668,77.7875,0.0001572,15.30223987,1047
63712,STARLINK-33783,1 63712U 25087R   26027.32484927  .00037316  00000-0  12652-2 0  9995,2 63712  53.1604  51.8874 0001595  86.9436 273.1748 15.30213602 42864,53.1604,483.40455977726634,51.8874,86.9436,0.0001595,15.30213602,1119
63713,STARLINK-33773,1 63713U 25087S   26027.29002220  .00043499  00000-0  14715-2 0  9995,2 63713  53.1591  51.6757 0001184  66.0644 294.0480 15.30215870 42866,53.1591,483.11611614412533,51.6757,66.0644,0.0001184,15.3021587,1182
63714,STARLINK-33745,1 63714U 25087T   26027.28685372  .00045658  00000-0  15431-2 0  9995,2 63714  53.1593  51.6546 0001277 106.4700 253.6441 15.30223344 42863,53.1593,483.1575334877605,51.6546,106.47,0.0001277,15.30223344,1183
63715,STARLINK-33728,1 63715U 25087U   26027.29426310  .00048803  00000-0  16498-2 0  9991,2 63715  53.1599  51.7004 0001303 102.7328 257.3818 15.30185671 42864,53.1599,483.28785091378444,51.7004,102.7328,0.0001303,15.30185671,1157
63716,STARLINK-33749,1 63716U 25087V   26027.26480752  .00042879  00000-0  14506-2 0  9994,2 63716  53.1606  52.2234 0001507 101.1868 258.9302 15.30219959 42854,53.1606,483.32526726685,52.2234,101.1868,0.0001507,15.30219959,1048
63717,STARLINK-33725,1 63717U 25087W   26027.29740786  .00020442  00000-0  70017-3 0  9996,2 63717  53.1593  51.7172 0001722 108.0685 252.0504 15.30211186 42861,53.1593,483.49881171808767,51.7172,108.0685,0.0001722,15.30211186,1157
63718,STARLINK-33641,1 63718U 25087X   26027.24792102  .00034864  00000-0  11828-2 0  9998,2 63718  53.1616  52.1195 0001548 118.0607 242.0550 15.30224002 42859,53.1616,483.3412925171079,52.1195,118.0607,0.0001548,15.30224002,1000
63719,STARLINK-33727,1 63719U 25087Y   26027.28474977  .00052614  00000-0  17748-2 0  9990,2 63719  53.1586  51.6456 0001396 124.4935 235.6198 15.30222455 42863,53.1586,483.24174224605224,51.6456,124.4935,0.0001396,15.30222455,1183
63720,STARLINK-33757,1 63720U 25087Z   26027.30796081  .00055364  00000-0  18664-2 0  9991,2 63720  53.1608  51.7837 0001064  92.0502 268.0620 15.30219895 42860,53.1608,483.02185751880893,51.7837,92.0502,0.0001064,15.30219895,1121
63721,STARLINK-33774,1 63721U 25087AA  26027.32273782  .00050701  00000-0  17113-2 0  9990,2 63721  53.1611  51.8762 0001800  38.8814 321.2316 15.30219416 42868,53.1611,483.52769029358586,51.8762,38.8814,0.00018,15.30219416,1119
